{"type": "FeatureCollection", "features": [ {"type": "Feature", "properties": {"norad_id": 37691, "name": "FENGYUN 1C DEB", "group": "fengyun-1c-debris", "lat": 51.13535087442287, "lon": 79.41007660702479, "alt_km": 517.9118018269328, "timestamp": "2025-12-11T05:00:26.597870+00:00", "meta": {"OBJECT_NAME": "FENGYUN 1C DEB", "OBJECT_ID": "1999-025ELG", "EPOCH": "2025-12-07T11:26:56.697504", "MEAN_MOTION": 14.57450494, "ECCENTRICITY": 0.02807584, "INCLINATION": 98.3722, "RA_OF_ASC_NODE": 245.1225, "ARG_OF_PERICENTER": 166.3843, "MEAN_ANOMALY": 194.5134, "EPHEMERIS_TYPE": 0, "CLASSIFICATION_TYPE": "U", "NORAD_CAT_ID": 37691, "ELEMENT_SET_NO": 999, "REV_AT_EPOCH": 85557, "BSTAR": 0.0027432659, "MEAN_MOTION_DOT": 0.00021485, "MEAN_MOTION_DDOT": 0}, "tle": {"line1": "1 37691U 99025ELG 25341.47704511  .00021485  00000+0  27433-2 0  9995", "line2": "2 37691  98.3722 245.1225 0280758 166.3843 194.5134 14.57450494855571"}}, "geometry": {"type": "Point", "coordinates": [79.41007660702479, 51.13535087442287]}}, {"type": "Feature", "properties": {"norad_id": 37693, "name": "FENGYUN 1C DEB", "group": "fengyun-1c-debris", "lat": 70.05359143573281, "lon": -169.98927294334447, "alt_km": 811.6871263019102, "timestamp": "2025-12-11T05:00:26.597880+00:00", "meta": {"OBJECT_NAME": "FENGYUN 1C DEB", "OBJECT_ID": "1999-025ELJ", "EPOCH": "2025-12-06T17:55:30.127008", "MEAN_MOTION": 14.0846487, "ECCENTRICITY": 0.00725318, "INCLINATION": 98.6978, "RA_OF_ASC_NODE": 340.7595, "ARG_OF_PERICENTER": 91.6733, "MEAN_ANOMALY": 85.1425, "EPHEMERIS_TYPE": 0, "CLASSIFICATION_TYPE": "U", "NORAD_CAT_ID": 37693, "ELEMENT_SET_NO": 999, "REV_AT_EPOCH": 62064, "BSTAR": 0.00098860763, "MEAN_MOTION_DOT": 1.695e-05, "MEAN_MOTION_DDOT": 0}, "tle": {"line1": "1 37693U 99025ELJ 25340.74687647  .00001695  00000+0  98861-3 0  9991", "line2": "2 37693  98.6978 340.7595 0072531  91.6733  85.1425 14.08464870620642"}}, "geometry": {"type": "Point", "coordinates": [-169.98927294334447, 70.05359143573281]}}, {"type": "Feature", "properties": {"norad_id": 37694, "name": "FENGYUN 1C DEB", "group": "fengyun-1c-debris", "lat": 25.351382915980206, "lon": -123.14388072735295, "alt_km": 775.7097447380356, "timestamp": "2025-12-11T05:00:26.597890+00:00", "meta": {"OBJECT_NAME": "FENGYUN 1C DEB", "OBJECT_ID": "1999-025ELK", "EPOCH": "2025-12-10T23:47:31.178112", "MEAN_MOTION": 14.16630228, "ECCENTRICITY": 0.01476201, "INCLINATION": 98.1979, "RA_OF_ASC_NODE": 52.7394, "ARG_OF_PERICENTER": 98.6192, "MEAN_ANOMALY": 26.6364, "EPHEMERIS_TYPE": 0, "CLASSIFICATION_TYPE": "U", "NORAD_CAT_ID": 37694, "ELEMENT_SET_NO": 999, "REV_AT_EPOCH": 51679, "BSTAR": 0.0025373198, "MEAN_MOTION_DOT": 5.598e-05, "MEAN_MOTION_DDOT": 0}, "tle": {"line1": "1 37694U 99025ELK 25344.99133308  .00005598  00000+0  25373-2 0  9996", "line2": "2 37694  98.1979  52.7394 0147620  98.6192  26.6364 14.16630228516797"}}, "geometry": {"type": "Point", "coordinates": [-123.14388072735295, 25.351382915980206]}}, {"type": "Feature", "properties": {"norad_id": 37695, "name": "FENGYUN 1C DEB", "group": "fengyun-1c-debris", "lat": -16.772875421875636, "lon": 31.24934949183677, "alt_km": 936.8442045385973, "timestamp": "2025-12-11T05:00:26.597900+00:00", "meta": {"OBJECT_NAME": "FENGYUN 1C DEB", "OBJECT_ID": "1999-025ELL", "EPOCH": "2025-12-05T21:35:58.305696", "MEAN_MOTION": 13.64964142, "ECCENTRICITY": 0.04651514, "INCLINATION": 98.2113, "RA_OF_ASC_NODE": 24.2422, "ARG_OF_PERICENTER": 279.1549, "MEAN_ANOMALY": 266.6228, "EPHEMERIS_TYPE": 0, "CLASSIFICATION_TYPE": "U", "NORAD_CAT_ID": 37695, "ELEMENT_SET_NO": 999, "REV_AT_EPOCH": 89158, "BSTAR": 0.001955193, "MEAN_MOTION_DOT": 3.282e-05, "MEAN_MOTION_DDOT": 0}, "tle": {"line1": "1 37695U 99025ELL 25339.89998039  .00003282  00000+0  19552-2 0  9990", "line2": "2 37695  98.2113  24.2422 0465151 279.1549 266.6228 13.64964142891584"}}, "geometry": {"type": "Point", "coordinates": [31.24934949183677, -16.772875421875636]}}, {"type": "Feature", "properties": {"norad_id": 37704, "name": "FENGYUN 1C DEB", "group": "fengyun-1c-debris", "lat": -78.62992783739129, "lon": -134.75153066686644, "alt_km": 1015.4689347277499, "timestamp": "2025-12-11T05:00:26.597909+00:00", "meta": {"OBJECT_NAME": "FENGYUN 1C DEB", "OBJECT_ID": "1999-025ELV", "EPOCH": "2025-12-10T18:58:47.253216", "MEAN_MOTION": 13.70500661, "ECCENTRICITY": 0.02401356, "INCLINATION": 98.3199, "RA_OF_ASC_NODE": 178.1952, "ARG_OF_PERICENTER": 184.1814, "MEAN_ANOMALY": 190.5574, "EPHEMERIS_TYPE": 0, "CLASSIFICATION_TYPE": "U", "NORAD_CAT_ID": 37704, "ELEMENT_SET_NO": 999, "REV_AT_EPOCH": 62338, "BSTAR": 0.0019314833, "MEAN_MOTION_DOT": 2.062e-05, "MEAN_MOTION_DDOT": 0}, "tle": {"line1": "1 37704U 99025ELV 25344.79082469  .00002062  00000+0  19315-2 0  9999", "line2": "2 37704  98.3199 178.1952 0240135 184.1814 190.5574 13.70500661623389"}}, "geometry": {"type": "Point", "coordinates": [-134.75153066686644, -78.62992783739129]}}, {"type": "Feature", "properties": {"norad_id": 37707, "name": "FENGYUN 1C DEB", "group": "fengyun-1c-debris", "lat": -77.48359138932436, "lon": 114.48808639593805, "alt_km": 773.2096679546694, "timestamp": "2025-12-11T05:00:26.597919+00:00", "meta": {"OBJECT_NAME": "FENGYUN 1C DEB", "OBJECT_ID": "1999-025ELY", "EPOCH": "2025-12-10T18:43:33.805632", "MEAN_MOTION": 14.56419788, "ECCENTRICITY": 0.01436989, "INCLINATION": 100.2215, "RA_OF_ASC_NODE": 348.3329, "ARG_OF_PERICENTER": 31.5927, "MEAN_ANOMALY": 147.6034, "EPHEMERIS_TYPE": 0, "CLASSIFICATION_TYPE": "U", "NORAD_CAT_ID": 37707, "ELEMENT_SET_NO": 999, "REV_AT_EPOCH": 85537, "BSTAR": 0.0011022748, "MEAN_MOTION_DOT": 5.562e-05, "MEAN_MOTION_DDOT": 0}, "tle": {"line1": "1 37707U 99025ELY 25344.78025238  .00005562  00000+0  11023-2 0  9998", "line2": "2 37707 100.2215 348.3329 0143698  31.5927 147.6034 14.56419788855373"}}, "geometry": {"type": "Point", "coordinates": [114.48808639593805, -77.48359138932436]}}, {"type": "Feature", "properties": {"norad_id": 37712, "name": "FENGYUN 1C DEB", "group": "fengyun-1c-debris", "lat": -42.37091476461379, "lon": -63.95403795366749, "alt_km": 817.0077534808406, "timestamp": "2025-12-11T05:00:26.597929+00:00", "meta": {"OBJECT_NAME": "FENGYUN 1C DEB", "OBJECT_ID": "1999-025EMD", "EPOCH": "2025-12-08T15:51:18.711936", "MEAN_MOTION": 14.36415184, "ECCENTRICITY": 0.0079393, "INCLINATION": 98.8182, "RA_OF_ASC_NODE": 121.579, "ARG_OF_PERICENTER": 5.6887, "MEAN_ANOMALY": 9.3339, "EPHEMERIS_TYPE": 0, "CLASSIFICATION_TYPE": "U", "NORAD_CAT_ID": 37712, "ELEMENT_SET_NO": 999, "REV_AT_EPOCH": 63902, "BSTAR": 0.00075147, "MEAN_MOTION_DOT": 2.236e-05, "MEAN_MOTION_DDOT": 0}, "tle": {"line1": "1 37712U 99025EMD 25342.66063324  .00002236  00000+0  75147-3 0  9990", "line2": "2 37712  98.8182 121.5790 0079393   5.6887   9.3339 14.36415184639022"}}, "geometry": {"type": "Point", "coordinates": [-63.95403795366749, -42.37091476461379]}}, {"type": "Feature", "properties": {"norad_id": 37714, "name": "FENGYUN 1C DEB", "group": "fengyun-1c-debris", "lat": 35.3399472799858, "lon": -76.75601269461902, "alt_km": 761.8897469857611, "timestamp": "2025-12-11T05:00:26.597939+00:00", "meta": {"OBJECT_NAME": "FENGYUN 1C DEB", "OBJECT_ID": "1999-025EMF", "EPOCH": "2025-12-09T13:46:38.631072", "MEAN_MOTION": 14.32176518, "ECCENTRICITY": 0.0048599, "INCLINATION": 98.8929, "RA_OF_ASC_NODE": 95.1946, "ARG_OF_PERICENTER": 93.8012, "MEAN_ANOMALY": 266.8729, "EPHEMERIS_TYPE": 0, "CLASSIFICATION_TYPE": "U", "NORAD_CAT_ID": 37714, "ELEMENT_SET_NO": 999, "REV_AT_EPOCH": 57464, "BSTAR": 0.0030577, "MEAN_MOTION_DOT": 8.305e-05, "MEAN_MOTION_DDOT": 0}, "tle": {"line1": "1 37714U 99025EMF 25343.57405823  .00008305  00000+0  30577-2 0  9997", "line2": "2 37714  98.8929  95.1946 0048599  93.8012 266.8729 14.32176518574645"}}, "geometry": {"type": "Point", "coordinates": [-76.75601269461902, 35.3399472799858]}}, {"type": "Feature", "properties": {"norad_id": 37715, "name": "FENGYUN 1C DEB", "group": "fengyun-1c-debris", "lat": 29.11701311506244, "lon": 178.05540433388336, "alt_km": 838.8856645549067, "timestamp": "2025-12-11T05:00:26.597949+00:00", "meta": {"OBJECT_NAME": "FENGYUN 1C DEB", "OBJECT_ID": "1999-025EMG", "EPOCH": "2025-12-08T07:32:41.570592", "MEAN_MOTION": 13.95403358, "ECCENTRICITY": 0.01145342, "INCLINATION": 98.9562, "RA_OF_ASC_NODE": 350.2044, "ARG_OF_PERICENTER": 124.1518, "MEAN_ANOMALY": 254.1782, "EPHEMERIS_TYPE": 0, "CLASSIFICATION_TYPE": "U", "NORAD_CAT_ID": 37715, "ELEMENT_SET_NO": 999, "REV_AT_EPOCH": 57742, "BSTAR": 0.0010104518, "MEAN_MOTION_DOT": 1.405e-05, "MEAN_MOTION_DDOT": 0}, "tle": {"line1": "1 37715U 99025EMG 25342.31437003  .00001405  00000+0  10105-2 0  9993", "line2": "2 37715  98.9562 350.2044 0114534 124.1518 254.1782 13.95403358577427"}}, "geometry": {"type": "Point", "coordinates": [178.05540433388336, 29.11701311506244]}}, {"type": "Feature", "properties": {"norad_id": 37717, "name": "FENGYUN 1C DEB", "group": "fengyun-1c-debris", "lat": 19.964766838249815, "lon": -62.39774665435213, "alt_km": 584.2497181997851, "timestamp": "2025-12-11T05:00:26.597959+00:00", "meta": {"OBJECT_NAME": "FENGYUN 1C DEB", "OBJECT_ID": "1999-025EMJ", "EPOCH": "2025-11-28T15:20:52.761120", "MEAN_MOTION": 14.92855591, "ECCENTRICITY": 0.00577735, "INCLINATION": 98.7244, "RA_OF_ASC_NODE": 286.8705, "ARG_OF_PERICENTER": 147.0493, "MEAN_ANOMALY": 30.278, "EPHEMERIS_TYPE": 0, "CLASSIFICATION_TYPE": "U", "NORAD_CAT_ID": 37717, "ELEMENT_SET_NO": 999, "REV_AT_EPOCH": 89187, "BSTAR": 0.0023279704, "MEAN_MOTION_DOT": 0.00024912, "MEAN_MOTION_DDOT": 0}, "tle": {"line1": "1 37717U 99025EMJ 25332.63949955  .00024912  00000+0  23280-2 0  9999", "line2": "2 37717  98.7244 286.8705 0057773 147.0493  30.2780 14.92855591891876"}}, "geometry": {"type": "Point", "coordinates": [-62.39774665435213, 19.964766838249815]}}]}